C/2020 H5 (Robinson),e,70.2223,210.6347,326.4082,3581,0.0000046,0.99739045,0.0000,12/12.1020/2020,2000,g  5.0,4.0
# From MPEC 2020-L06
C/2020 H6 (ATLAS),h,09/30.9911/2021,79.9732,213.6977,20.3192,1.000838,4.704634,2000,8.0,3.2
# From MPEC 2020-KB7
C/2020 H7 (Lemmon),e,135.9235,323.5194,82.6780,1405,0.0000187,0.99685380,0.0000,06/02.9510/2020,2000,g 11.0,4.0
# From MPC xxxxx
C/2020 H8 (PANSTARRS),e,99.6451,68.4089,128.9358,595.9840,0.0000677,0.99215545,0.0000,06/04.4513/2020,2000,g 10.5,4.0
# From MPEC 2020-L06
A/2020 H9,e,137.8778,213.1302,312.9040,549.4757,0.0000765,0.99530564,0.0000,12/21.4011/2019,2000,g 18.0,2.0
# From MPEC 2020-L06
C/2020 J1 (SONEAR),e,142.2928,226.5921,341.7365,480.6218,0.0000935,0.99300915,0.0000,04/19.4158/2021,2000,g  8.5,3.2
# From MPEC 2020-L06
C/2020 K1 (PANSTARRS),h,05/08.0242/2023,89.6563,94.3578,213.9283,1.000900,3.073116,2000,5.5,4.0
# From MPC xxxxx
C/2020 K2 (PANSTARRS),h,08/05.4344/2020,91.0378,288.3466,67.3082,1.002581,8.878568,2000,10.8,4.0
# From MPEC 2020-KF9
C/2020 K3 (Leonard),p,06/01.0032/2020,129.0152,64.4924,1.583069,28.3546,2000,14.5,4.0
# From MPEC 2020-L06
C/2020 K4 (PANSTARRS),e,125.5651,264.1002,308.7788,23.87462,0.0084489,0.92656159,4.0748,06/29.0/2021,2000,g 16.5,4.0
# From MPEC 2020-L06
C/2020 K5 (PANSTARRS),h,06/05.5835/2021,67.1564,86.1603,249.5944,1.001553,1.535494,2000,11.0,4.0
# From MPEC 2020-L06
C/2020 K6 (Rankin),h,08/27.0874/2021,103.7905,291.5591,41.7538,1.000001,5.992199,2000,8.0,4.0
# From MPEC 2020-L09
C/2020 K7 (PANSTARRS),p,10/05.3027/2021,34.5520,60.8413,5.644571,287.4776,2000,8.0,4.0
# From MPEC 2021-BE3
C/2020 K8 (Catalina-ATLAS),h,09/14.5184/2020,31.4181,181.5238,260.0408,1.000230,0.474413,2000,15.0,3.2
# From MPEC 2021-BE3
P/2020 K9 (Lemmon-PANSTARRS),e,23.2100,166.2407,196.8888,4.199079,0.1145442,0.32140541,15.7078,06/29.0/2021,2000,g 12.5,4.0
# From MPEC 2020-K19
P/2020 M1 (PANSTARRS),e,8.6647,142.8653,68.7617,5.151853,0.0842867,0.48149808,46.5455,06/29.0/2021,2000,g 14.5,4.0
# From MPEC 2021-BE3
C/2020 M3 (ATLAS),e,23.4721,71.2447,328.4527,26.86819,0.0070770,0.95279897,1.7435,06/29.0/2021,2000,g 14.5,4.0
# From MPEC 2020-K19
A/2020 M4,e,160.1263,348.6269,104.6529,10478,0.0000009,0.99943189,0.0000,11/23.9789/2020,2000,g 14.5,2.0
# From MPEC 2021-BE3
C/2020 M5 (ATLAS),e,93.2223,352.0954,126.3393,38058,0.0000001,0.99992106,0.0000,08/19.8820/2021,2000,g  9.0,4.0
# From MPEC 2021-BE3
C/2020 N1 (PANSTARRS),h,03/12.2256/2021,29.7031,279.9809,186.7690,1.000514,1.320691,2000,12.5,4.0
# From MPEC 2020-W26
C/2020 N2 (ATLAS),e,161.0344,257.0757,331.2170,108.5492,0.0008715,0.98347093,0.0000,08/23.6849/2020,2000,g 16.0,3.2
# From MPEC 2020-SI8
P/2020 O1 (Lemmon-PANSTARRS),e,5.2259,175.9772,104.5365,2.644514,0.2291845,0.11950024,96.7818,06/29.0/2021,2000,g 15.5,4.0
# From MPEC 2021-BE3
C/2020 O2 (Amaral),h,08/28.1919/2021,71.7519,256.7518,10.2373,1.002201,4.864462,2000,8.0,3.2
# From MPEC 2020-SI8
P/2020 O3 (PANSTARRS),e,8.4410,266.8465,81.5536,4.653566,0.0981805,0.10460760,14.7041,06/29.0/2021,2000,g 12.0,4.0
# From MPEC 2021-BE3
C/2020 P1 (NEOWISE),h,10/20.1797/2020,45.0615,53.5322,8.8924,1.000273,0.342079,2000,14.0,3.2
# From MPEC 2021-BE3
C/2020 P3 (ATLAS),e,61.8847,19.4844,82.2481,7235,0.0000016,0.99905845,0.0000,04/20.8634/2021,2000,g  6.0,4.0
# From MPC xxxxx
C/2020 PV6 (PANSTARRS),e,128.2394,329.1439,71.3746,41.81576,0.0036450,0.94510058,359.6757,06/29.0/2021,2000,g 10.0,4.0
# From MPEC 2021-BE3
C/2020 Q1 (Borisov),e,142.9171,52.4121,9.9041,59.03915,0.0021727,0.97772937,0.0000,08/14.6452/2020,2000,g 14.0,4.0
# From MPEC 2021-BE3
C/2020 R2 (PANSTARRS),e,53.2239,195.0924,211.7058,410.3702,0.0001186,0.98856580,0.0000,02/24.2872/2022,2000,g  9.0,4.0
# From MPEC 2021-BE3
C/2020 R4 (ATLAS),e,164.4629,323.2763,46.7288,96.05184,0.0010470,0.98929270,0.0000,03/01.9434/2021,2000,g 13.5,4.0
# From MPEC 2020-W26
P/2020 R5 (PANSTARRS),e,11.4537,272.9736,82.3784,4.980686,0.0886687,0.31462223,35.1537,06/29.0/2021,2000,g  9.5,6.0
# From MPEC 2020-W26
C/2020 R6 (Rankin),e,82.8217,12.1745,271.9556,551.9526,0.0000760,0.99433569,0.0000,09/10.1762/2019,2000,g 11.0,4.0
# From MPEC 2021-BE3
C/2020 R7 (ATLAS),e,114.8913,268.2765,347.8330,6433,0.0000019,0.99954049,0.0000,09/16.2526/2022,2000,g  7.0,3.2
# From MPEC 2021-BE3
P/2020 S1 (PANSTARRS),e,13.7340,129.4590,254.8940,5.981382,0.0673755,0.50724313,10.9818,06/29.0/2021,2000,g 14.0,4.0
# From MPEC 2021-BE3
C/2020 S2 (PANSTARRS),e,22.3975,197.6815,202.2749,10.18695,0.0303136,0.82761591,5.7307,06/29.0/2021,2000,g 17.0,4.0
# From MPEC 2021-BE3
C/2020 S3 (Erasmus),e,19.8686,222.9646,349.8985,187.3262,0.0003844,0.99787391,0.0000,12/12.6793/2020,2000,g 13.5,3.2
# From MPEC 2021-BE3
C/2020 S4 (PANSTARRS),e,20.5748,117.7133,21.0472,21061,0.0000003,0.99984004,0.0000,02/09.5751/2023,2000,g  8.5,3.2
# From MPEC 2021-BE3
P/2020 S5 (PANSTARRS),e,12.3540,315.9990,53.0467,4.049604,0.1209442,0.33846748,39.2458,06/29.0/2021,2000,g 14.5,4.0
# From MPEC 2021-BE3
P/2020 S6 (Leonard),e,15.4589,242.5665,176.6598,3.599720,0.1443115,0.47918391,31.3700,06/29.0/2021,2000,g 16.0,4.0
# From MPEC 2021-BE3
P/2020 S7 (PANSTARRS),e,16.0921,328.0184,40.4264,5.023370,0.0875410,0.41051988,19.5074,06/29.0/2021,2000,g 14.5,4.0
# From MPEC 2021-BE3
C/2020 S8 (Lemmon),e,108.5196,24.0519,160.3331,275.0006,0.0002161,0.99140400,0.0000,04/10.9312/2021,2000,g 12.5,4.0
# From MPEC 2021-BE3
C/2020 T2 (Palomar),e,27.8730,83.0482,150.3825,312.3686,0.0001785,0.99342218,0.0000,07/11.1474/2021,2000,g 11.0,3.2
# From MPEC 2021-BE3
P/2020 T3 (PANSTARRS),e,7.2954,74.0169,357.0415,3.517796,0.1493819,0.59163005,23.8313,06/29.0/2021,2000,g 18.0,3.2
# From MPEC 2021-BE3
C/2020 T4 (PANSTARRS),h,07/05.2468/2021,83.8165,50.6205,79.6013,1.000148,2.191965,2000,13.0,3.2
# From MPEC 2021-BE3
C/2020 T5 (Lemmon),e,66.6005,237.8616,90.2990,846.8893,0.0000400,0.99776935,0.0000,10/09.6268/2020,2000,g 16.0,4.0
# From MPEC 2021-BE3
P/2020 U2 (PANSTARRS),e,6.4211,342.8982,84.6516,3.777952,0.1342207,0.51063163,24.8695,06/29.0/2021,2000,g 18.0,4.0
# From MPEC 2021-BE3
C/2020 U3 (Rankin),e,30.1761,282.6797,124.2656,65.01068,0.0018803,0.96498739,0.2689,06/29.0/2021,2000,g 15.0,4.0
# From MPEC 2021-BE3
C/2020 U4 (PANSTARRS),h,04/07.7754/2022,167.0369,120.0195,69.5188,1.002075,5.353884,2000,7.0,4.0
# From MPEC 2021-BE3
C/2020 U5 (PANSTARRS),e,97.2764,107.3420,75.4104,14839,0.0000005,0.99974689,0.0000,04/27.8245/2022,2000,g  8.0,4.0
# From MPEC 2021-BE3
C/2020 V2 (ZTF),h,05/08.4898/2023,131.6005,212.3450,162.3881,1.001287,2.228245,2000,4.9,4.0
# From MPEC 2021-BE3
P/2020 V3 (PANSTARRS),e,23.0329,198.2812,249.2350,8.364811,0.0407399,0.25513896,5.7659,06/29.0/2021,2000,g  8.3,4.0
# From MPEC 2021-BE3
P/2020 V4 (Rankin),e,14.2432,203.5084,256.9944,9.341982,0.0345180,0.44887401,359.3472,06/29.0/2021,2000,g  9.0,4.0
# From MPEC 2021-BE3
P/2020 W1 (Rankin),e,10.7919,124.2596,264.8214,7.198730,0.0510294,0.26543696,22.9729,06/29.0/2021,2000,g 10.0,4.0
# From MPEC 2021-BE3
C/2020 W5 (Lemmon),h,11/30.1016/2020,88.5843,75.5093,24.4811,1.000931,3.364228,2000,15.0,4.0
# From MPEC 2021-BE3
P/2020 X1 (ATLAS),e,31.6730,56.0333,323.5521,4.522050,0.1024946,0.36453385,35.0994,06/29.0/2021,2000,g 13.0,4.0
# From MPEC 2021-BE3
C/2020 X2 (ATLAS),e,18.1907,105.4581,347.3477,16.39348,0.0148490,0.76646896,3.3434,06/29.0/2021,2000,g 10.6,4.0
# From MPEC 2021-BE3
C/2020 X4 (Leonard),e,80.5019,161.8928,139.5574,47.09468,0.0030496,0.88937175,0.7002,06/29.0/2021,2000,g  9.0,4.0
# From MPEC 2021-BE3
C/2020 Y2 (ATLAS),e,101.2883,26.5076,266.0973,1167,0.0000247,0.99731631,0.0000,06/17.7214/2022,2000,g  6.5,4.0
# From MPEC 2021-BE3
C/2020 Y3 (ATLAS),e,83.1055,191.4354,342.0925,165.4713,0.0004630,0.98791364,0.0000,12/03.5797/2020,2000,g 13.5,4.0
# From MPEC 2021-BE3
C/2021 A1 (Leonard),h,01/03.3099/2022,132.6859,255.8892,225.0920,1.000058,0.615203,2000,8.5,4.0
# From MPEC 2021-BE3
C/2021 A2 (NEOWISE),h,01/22.7026/2021,107.0288,125.2195,338.8840,1.000997,1.413466,2000,13.5,4.0
# From MPEC 2021-BE3
C/2021 A4 (NEOWISE),e,111.5846,307.0768,204.6257,45.32836,0.0032296,0.97472403,0.0000,03/19.9977/2021,2000,g 16.0,4.0
# From MPEC 2021-BE3
P/2021 A5 (PANSTARRS),e,18.1881,328.7674,61.0998,3.046111,0.1853897,0.13965610,42.5470,06/29.0/2021,2000,g 15.0,4.0
# From MPEC 2021-BE3
C/2021 A6 (PANSTARRS),e,75.5818,164.0864,351.2887,4366,0.0000034,0.99818342,0.0000,04/27.7253/2021,2000,g  7.0,4.0
# From MPEC 2021-BE3
C/2021 A7 (NEOWISE),e,78.1429,154.5381,356.0660,758.8299,0.0000472,0.99740581,0.0000,07/15.4974/2021,2000,g 10.0,4.0
# From MPEC 2021-BE3
C/2021 A9 (PANSTARRS),h,11/24.2996/2023,158.0895,314.7664,211.7294,1.036720,7.705602,2000,6.0,4.0
# From MPEC 2021-C25
C/2021 A10 (NEOWISE),e,151.5246,188.3495,82.2665,93.46310,0.0010908,0.98642720,0.0000,03/15.2629/2021,2000,g 19.0,4.0
# From MPEC 2021-BE3
C/2021 B2 (PANSTARRS),e,38.1381,120.4364,334.8700,445.9987,0.0001046,0.99435090,0.0000,05/04.0942/2021,2000,g 14.0,4.0
# From MPEC 2021-C16
C/2021 B3 (NEOWISE),e,119.5037,67.3325,293.6935,31.03165,0.0057016,0.93045078,359.9990,03/11.0/2021,2000,g 13.5,4.0
# From MPEC 2021-FB5
C/2021 C1 (Rankin),h,12/07.7582/2020,143.0638,186.8919,336.4347,1.004061,3.483723,2000,11.5,4.0
# From MPEC 2021-F20
P/2021 C2 (PANSTARRS),e,21.9253,66.4705,79.1066,9.538063,0.0334591,0.48728320,4.0835,06/29.0/2021,2000,g 12.0,4.0
# From MPEC 2021-FB5
C/2021 C3 (Catalina),e,122.1627,181.9207,357.1487,63.32611,0.0019558,0.96405167,0.2671,06/29.0/2021,2000,g 14.0,4.0
# From MPEC 2021-FB5
C/2021 C4 (ATLAS),h,01/18.3751/2021,132.8670,194.2579,320.4063,1.002433,4.506665,2000,9.0,4.0
# From MPEC 2021-FB5
C/2021 C5 (PANSTARRS),e,50.7947,323.6903,270.9170,70414,0.0000001,0.99995397,0.0000,02/10.8501/2023,2000,g  9.0,4.0
# From MPEC 2021-F63
C/2021 C6 (Lemmon),h,11/13.3285/2021,164.6263,332.1544,203.5656,1.002216,3.271243,2000,12.0,4.0
# From MPEC 2021-FB5
C/2021 D1 (SWAN),e,31.4619,311.2733,72.2213,92.32976,0.0011109,0.99023362,0.0000,02/27.6082/2021,2000,g 13.0,4.0
# From MPEC 2021-F67
